COSMOS 2544 [GLONASS-M] 
1 44850U 19088A   26092.47821141  .00000001  00000+0  00000+0 0  9993
2 44850  65.5087  76.2399 0013076 256.6381 103.2057  2.13086826 49106
BEIDOU-3 M19            
1 44864U 19090A   26095.70552223 -.00000034  00000+0  00000+0 0  9999
2 44864  56.4979  65.1844 0020280 293.9957 244.6668  1.86231691 42887
BEIDOU-3 M20            
1 44865U 19090B   26095.57248689 -.00000035  00000+0  00000+0 0  9994
2 44865  56.4994  65.2230 0017785 305.7486 233.3254  1.86231595 42867
BEIDOU-3 G2             
1 45344U 20017A   26095.90441778 -.00000138  00000+0  00000+0 0  9993
2 45344   2.7196  46.1612 0002873 338.5909 215.0832  1.00272127 22539
COSMOS 2545 [GLONASS-M] 
1 45358U 20018A   26090.32740933 -.00000034  00000+0  00000+0 0  9990
2 45358  64.4015 315.1566 0007330 245.6005 114.3786  2.13102306 47008
BEIDOU-3 G3             
1 45807U 20040A   26095.76688249 -.00000351  00000+0  00000+0 0  9990
2 45807   2.2698  67.2276 0004619 329.1984 184.2648  1.00269472 21343
NAVSTAR 79 (USA 304)    
1 45854U 20041A   26095.69198816 -.00000083  00000+0  00000+0 0  9993
2 45854  56.6261  31.7566 0061800 205.1302 336.9671  2.00560346 42580
GALAXY 30 (G-30)        
1 46114U 20056C   26095.72025564  .00000000  00000+0  00000+0 0  9990
2 46114   0.0146 195.6358 0002368 186.1086 306.5570  1.00271383 20569
COSMOS 2547 [GLONASS-K] 
1 46805U 20075A   26086.76204793 -.00000031  00000+0  00000+0 0  9990
2 46805  64.5985 195.1905 0007370 232.5213 127.4084  2.13100219 42176
NAVSTAR 80 (USA 309)    
1 46826U 20078A   26095.71184957  .00000006  00000+0  00000+0 0  9991
2 46826  53.9938 213.7167 0069971 205.1796 325.3931  2.00565249 40052
NAVSTAR 81 (USA 319)    
1 48859U 21054A   26087.05663564 -.00000088  00000+0  00000+0 0  9999
2 48859  55.2101 335.7223 0023817 231.1961 354.6747  2.00573996 35127
QZS-1R (MICHIBIKI-1R)   
1 49336U 21096A   26095.84126050 -.00000237  00000+0  00000+0 0  9992
2 49336  37.3138  80.6479 0750144 270.4087 281.4223  1.00280626 16289
GSAT0223 (GALILEO 27)   
1 49809U 21116A   26094.95822476 -.00000093  00000+0  00000+0 0  9996
2 49809  57.1835 343.6546 0001263 288.2502 249.3367  1.70475996 26933
GSAT0224 (GALILEO 28)   
1 49810U 21116B   26095.36086236 -.00000092  00000+0  00000+0 0  9999
2 49810  57.1848 343.6426 0001177  35.0480 142.2428  1.70476035 26960
COSMOS 2557 [GLONASS-K] 
1 52984U 22075A   26095.37367723 -.00000047  00000+0  00000+0 0  9994
2 52984  64.3402 317.0513 0010730 283.4282  76.4990  2.13102008 29169
COSMOS 2559 [GLONASS-K] 
1 54031U 22130A   26092.37757024 -.00000046  00000+0  00000+0 0  9994
2 54031  64.3149 317.2428 0010859 177.9210 182.1370  2.13101452 27076
COSMOS 2564 [GLONASS-M] 
1 54377U 22161A   26095.50583769  .00000017  00000+0  00000+0 0  9999
2 54377  64.7398 195.1226 0010383 216.1285 143.8305  2.13102031 26084
